{"type": "FeatureCollection", "features": [ {"type": "Feature", "properties": {"norad_id": 35290, "name": "COSMOS 2251 DEB", "group": "cosmos-2251-debris", "lat": -27.64510130475026, "lon": 29.13563545240413, "alt_km": 633.7892420452008, "timestamp": "2025-12-23T16:57:12.750852+00:00", "meta": {"OBJECT_NAME": "COSMOS 2251 DEB", "OBJECT_ID": "1993-036AJU", "EPOCH": "2025-12-20T03:08:10.287168", "MEAN_MOTION": 14.80565596, "ECCENTRICITY": 0.00016036, "INCLINATION": 74.0049, "RA_OF_ASC_NODE": 44.8368, "ARG_OF_PERICENTER": 190.188, "MEAN_ANOMALY": 169.9265, "EPHEMERIS_TYPE": 0, "CLASSIFICATION_TYPE": "U", "NORAD_CAT_ID": 35290, "ELEMENT_SET_NO": 999, "REV_AT_EPOCH": 88067, "BSTAR": 0.0010027753, "MEAN_MOTION_DOT": 7.664e-05, "MEAN_MOTION_DDOT": 0}, "tle": {"line1": "1 35290U 93036AJU 25354.13067462  .00007664  00000+0  10028-2 0  9993", "line2": "2 35290  74.0049  44.8368 0001603 190.1880 169.9265 14.80565596880671"}}, "geometry": {"type": "Point", "coordinates": [29.13563545240413, -27.64510130475026]}}, {"type": "Feature", "properties": {"norad_id": 35432, "name": "COSMOS 2251 DEB", "group": "cosmos-2251-debris", "lat": 65.49603996485686, "lon": 133.44749828272245, "alt_km": 492.9513287482396, "timestamp": "2025-12-23T16:57:12.750862+00:00", "meta": {"OBJECT_NAME": "COSMOS 2251 DEB", "OBJECT_ID": "1993-036AKA", "EPOCH": "2025-12-22T10:33:02.372256", "MEAN_MOTION": 15.24271254, "ECCENTRICITY": 0.00124874, "INCLINATION": 74.0191, "RA_OF_ASC_NODE": 355.0792, "ARG_OF_PERICENTER": 325.0494, "MEAN_ANOMALY": 34.9884, "EPHEMERIS_TYPE": 0, "CLASSIFICATION_TYPE": "U", "NORAD_CAT_ID": 35432, "ELEMENT_SET_NO": 999, "REV_AT_EPOCH": 87651, "BSTAR": 0.0024812627, "MEAN_MOTION_DOT": 0.00061205, "MEAN_MOTION_DDOT": 0}, "tle": {"line1": "1 35432U 93036AKA 25356.43961079  .00061205  00000+0  24813-2 0  9991", "line2": "2 35432  74.0191 355.0792 0012487 325.0494  34.9884 15.24271254876517"}}, "geometry": {"type": "Point", "coordinates": [133.44749828272245, 65.49603996485686]}}, {"type": "Feature", "properties": {"norad_id": 35433, "name": "COSMOS 2251 DEB", "group": "cosmos-2251-debris", "lat": 13.873039256257005, "lon": -37.58501645072427, "alt_km": 758.3297957807663, "timestamp": "2025-12-23T16:57:12.750873+00:00", "meta": {"OBJECT_NAME": "COSMOS 2251 DEB", "OBJECT_ID": "1993-036AKB", "EPOCH": "2025-12-10T18:27:52.031808", "MEAN_MOTION": 14.34742553, "ECCENTRICITY": 0.00254013, "INCLINATION": 74.0339, "RA_OF_ASC_NODE": 342.0559, "ARG_OF_PERICENTER": 37.4572, "MEAN_ANOMALY": 142.4072, "EPHEMERIS_TYPE": 0, "CLASSIFICATION_TYPE": "U", "NORAD_CAT_ID": 35433, "ELEMENT_SET_NO": 999, "REV_AT_EPOCH": 86552, "BSTAR": 0.00041847558, "MEAN_MOTION_DOT": 1.164e-05, "MEAN_MOTION_DDOT": 0}, "tle": {"line1": "1 35433U 93036AKB 25344.76935222  .00001164  00000+0  41848-3 0  9992", "line2": "2 35433  74.0339 342.0559 0025401  37.4572 142.4072 14.34742553865528"}}, "geometry": {"type": "Point", "coordinates": [-37.58501645072427, 13.873039256257005]}}, {"type": "Feature", "properties": {"norad_id": 35434, "name": "COSMOS 2251 DEB", "group": "cosmos-2251-debris", "lat": -62.46720321124462, "lon": 160.53304555286775, "alt_km": 758.7585909428954, "timestamp": "2025-12-23T16:57:12.750883+00:00", "meta": {"OBJECT_NAME": "COSMOS 2251 DEB", "OBJECT_ID": "1993-036AKC", "EPOCH": "2025-12-22T05:54:05.337504", "MEAN_MOTION": 14.2571381, "ECCENTRICITY": 0.00872817, "INCLINATION": 74.039, "RA_OF_ASC_NODE": 196.4671, "ARG_OF_PERICENTER": 265.2189, "MEAN_ANOMALY": 93.8988, "EPHEMERIS_TYPE": 0, "CLASSIFICATION_TYPE": "U", "NORAD_CAT_ID": 35434, "ELEMENT_SET_NO": 999, "REV_AT_EPOCH": 86253, "BSTAR": 0.00053067113, "MEAN_MOTION_DOT": 1.284e-05, "MEAN_MOTION_DDOT": 0}, "tle": {"line1": "1 35434U 93036AKC 25356.24589511  .00001284  00000+0  53067-3 0  9994", "line2": "2 35434  74.0390 196.4671 0087281 265.2189  93.8988 14.25713810862538"}}, "geometry": {"type": "Point", "coordinates": [160.53304555286775, -62.46720321124462]}}, {"type": "Feature", "properties": {"norad_id": 35435, "name": "COSMOS 2251 DEB", "group": "cosmos-2251-debris", "lat": 49.90361487650421, "lon": 102.39079465058406, "alt_km": 631.1923774945217, "timestamp": "2025-12-23T16:57:12.750893+00:00", "meta": {"OBJECT_NAME": "COSMOS 2251 DEB", "OBJECT_ID": "1993-036AKD", "EPOCH": "2025-12-21T23:02:18.053952", "MEAN_MOTION": 14.78725447, "ECCENTRICITY": 0.0007022, "INCLINATION": 74.0111, "RA_OF_ASC_NODE": 85.9177, "ARG_OF_PERICENTER": 183.0187, "MEAN_ANOMALY": 296.3821, "EPHEMERIS_TYPE": 0, "CLASSIFICATION_TYPE": "U", "NORAD_CAT_ID": 35435, "ELEMENT_SET_NO": 999, "REV_AT_EPOCH": 87675, "BSTAR": 0.0022341039, "MEAN_MOTION_DOT": 0.00016414, "MEAN_MOTION_DDOT": 0}, "tle": {"line1": "1 35435U 93036AKD 25355.95993118  .00016414  00000+0  22341-2 0  9995", "line2": "2 35435  74.0111  85.9177 0007022 183.0187 296.3821 14.78725447876755"}}, "geometry": {"type": "Point", "coordinates": [102.39079465058406, 49.90361487650421]}}, {"type": "Feature", "properties": {"norad_id": 35439, "name": "COSMOS 2251 DEB", "group": "cosmos-2251-debris", "lat": -14.414775543772448, "lon": -59.82729515666439, "alt_km": 912.2723960354697, "timestamp": "2025-12-23T16:57:12.750903+00:00", "meta": {"OBJECT_NAME": "COSMOS 2251 DEB", "OBJECT_ID": "1993-036AKH", "EPOCH": "2025-12-23T01:03:41.280192", "MEAN_MOTION": 13.9285581, "ECCENTRICITY": 0.02428241, "INCLINATION": 74.0195, "RA_OF_ASC_NODE": 117.083, "ARG_OF_PERICENTER": 284.1415, "MEAN_ANOMALY": 194.5054, "EPHEMERIS_TYPE": 0, "CLASSIFICATION_TYPE": "U", "NORAD_CAT_ID": 35439, "ELEMENT_SET_NO": 999, "REV_AT_EPOCH": 84104, "BSTAR": 0.0017241175, "MEAN_MOTION_DOT": 2.822e-05, "MEAN_MOTION_DDOT": 0}, "tle": {"line1": "1 35439U 93036AKH 25357.04422778  .00002822  00000+0  17241-2 0  9991", "line2": "2 35439  74.0195 117.0830 0242824 284.1415 194.5054 13.92855810841046"}}, "geometry": {"type": "Point", "coordinates": [-59.82729515666439, -14.414775543772448]}}, {"type": "Feature", "properties": {"norad_id": 35440, "name": "COSMOS 2251 DEB", "group": "cosmos-2251-debris", "lat": 26.128338467098246, "lon": -165.54131898842488, "alt_km": 640.6127192056019, "timestamp": "2025-12-23T16:57:12.750913+00:00", "meta": {"OBJECT_NAME": "COSMOS 2251 DEB", "OBJECT_ID": "1993-036AKJ", "EPOCH": "2025-12-22T19:34:52.667040", "MEAN_MOTION": 14.68858524, "ECCENTRICITY": 0.00697181, "INCLINATION": 74.0136, "RA_OF_ASC_NODE": 188.1002, "ARG_OF_PERICENTER": 326.674, "MEAN_ANOMALY": 33.0049, "EPHEMERIS_TYPE": 0, "CLASSIFICATION_TYPE": "U", "NORAD_CAT_ID": 35440, "ELEMENT_SET_NO": 999, "REV_AT_EPOCH": 68913, "BSTAR": 0.00037964995, "MEAN_MOTION_DOT": 2.268e-05, "MEAN_MOTION_DDOT": 0}, "tle": {"line1": "1 35440U 93036AKJ 25356.81588735  .00002268  00000+0  37965-3 0  9993", "line2": "2 35440  74.0136 188.1002 0069718 326.6740  33.0049 14.68858524689135"}}, "geometry": {"type": "Point", "coordinates": [-165.54131898842488, 26.128338467098246]}}, {"type": "Feature", "properties": {"norad_id": 35441, "name": "COSMOS 2251 DEB", "group": "cosmos-2251-debris", "lat": 72.8695596547058, "lon": 29.89195203643106, "alt_km": 669.6103986082016, "timestamp": "2025-12-23T16:57:12.750923+00:00", "meta": {"OBJECT_NAME": "COSMOS 2251 DEB", "OBJECT_ID": "1993-036AKK", "EPOCH": "2025-12-23T01:44:22.571808", "MEAN_MOTION": 14.62737504, "ECCENTRICITY": 0.003608, "INCLINATION": 74.135, "RA_OF_ASC_NODE": 278.4179, "ARG_OF_PERICENTER": 171.2985, "MEAN_ANOMALY": 188.8816, "EPHEMERIS_TYPE": 0, "CLASSIFICATION_TYPE": "U", "NORAD_CAT_ID": 35441, "ELEMENT_SET_NO": 999, "REV_AT_EPOCH": 87581, "BSTAR": 0.001573097, "MEAN_MOTION_DOT": 8.072e-05, "MEAN_MOTION_DDOT": 0}, "tle": {"line1": "1 35441U 93036AKK 25357.07248347  .00008072  00000+0  15731-2 0  9990", "line2": "2 35441  74.1350 278.4179 0036080 171.2985 188.8816 14.62737504875815"}}, "geometry": {"type": "Point", "coordinates": [29.89195203643106, 72.8695596547058]}}, {"type": "Feature", "properties": {"norad_id": 35442, "name": "COSMOS 2251 DEB", "group": "cosmos-2251-debris", "lat": 51.55493541641947, "lon": -123.780891848458, "alt_km": 608.5744037739942, "timestamp": "2025-12-23T16:57:12.750933+00:00", "meta": {"OBJECT_NAME": "COSMOS 2251 DEB", "OBJECT_ID": "1993-036AKL", "EPOCH": "2025-12-21T22:20:48.255648", "MEAN_MOTION": 14.84734411, "ECCENTRICITY": 0.00038381, "INCLINATION": 74.0273, "RA_OF_ASC_NODE": 80.8914, "ARG_OF_PERICENTER": 50.7376, "MEAN_ANOMALY": 309.4143, "EPHEMERIS_TYPE": 0, "CLASSIFICATION_TYPE": "U", "NORAD_CAT_ID": 35442, "ELEMENT_SET_NO": 999, "REV_AT_EPOCH": 87489, "BSTAR": 0.0021156, "MEAN_MOTION_DOT": 0.00017947, "MEAN_MOTION_DDOT": 0}, "tle": {"line1": "1 35442U 93036AKL 25355.93111407  .00017947  00000+0  21156-2 0  9999", "line2": "2 35442  74.0273  80.8914 0003838  50.7376 309.4143 14.84734411874890"}}, "geometry": {"type": "Point", "coordinates": [-123.780891848458, 51.55493541641947]}}, {"type": "Feature", "properties": {"norad_id": 35443, "name": "COSMOS 2251 DEB", "group": "cosmos-2251-debris", "lat": -63.37322864402755, "lon": -85.60464043622738, "alt_km": 627.642179426538, "timestamp": "2025-12-23T16:57:12.750944+00:00", "meta": {"OBJECT_NAME": "COSMOS 2251 DEB", "OBJECT_ID": "1993-036AKM", "EPOCH": "2025-12-22T07:35:27.878496", "MEAN_MOTION": 14.97448955, "ECCENTRICITY": 0.00729664, "INCLINATION": 73.9898, "RA_OF_ASC_NODE": 312.1571, "ARG_OF_PERICENTER": 91.4914, "MEAN_ANOMALY": 269.4631, "EPHEMERIS_TYPE": 0, "CLASSIFICATION_TYPE": "U", "NORAD_CAT_ID": 35443, "ELEMENT_SET_NO": 999, "REV_AT_EPOCH": 87021, "BSTAR": 0.0042887537, "MEAN_MOTION_DOT": 0.00053082, "MEAN_MOTION_DDOT": 0}, "tle": {"line1": "1 35443U 93036AKM 25356.31629489  .00053082  00000+0  42888-2 0  9992", "line2": "2 35443  73.9898 312.1571 0072966  91.4914 269.4631 14.97448955870218"}}, "geometry": {"type": "Point", "coordinates": [-85.60464043622738, -63.37322864402755]}}]}